GSAT0101 (PRN E11)      
1 37846U 11060A   20272.19099760 -.00000084  00000-0  00000-0 0  9993
2 37846  56.6938  38.4640 0000869  30.1092 329.8839  1.70475413 55521
GSAT0102 (PRN E12)      
1 37847U 11060B   20272.21611884 -.00000084  00000-0  00000-0 0  9994
2 37847  56.6946  38.4628 0001976 302.8609 118.6702  1.70475537 55531
GSAT0103 (PRN E19)      
1 38857U 12055A   20272.23306464 -.00000011  00000-0  00000-0 0  9998
2 38857  54.9914 158.9532 0002114 270.2565  89.7917  1.70473890 49567
GSAT0104 (PRN E20)      
1 38858U 12055B   20272.16744971 -.00000012  00000-0  00000-0 0  9991
2 38858  54.9923 158.9543 0001025 294.9762  65.0852  1.70473860 49564
GSAT0201 (PRN E18)      
1 40128U 14050A   20271.27250759 -.00000118  00000-0  00000-0 0  9995
2 40128  50.5524 357.3133 1659227 102.7213 276.2515  1.85519236 39595
GSAT0202 (PRN E14)      
1 40129U 14050B   20272.07486100 -.00000116  00000-0  00000+0 0  9993
2 40129  50.5878 356.3215 1656893 103.5628 275.3526  1.85519951 41716
GSAT0203 (PRN E26)      
1 40544U 15017A   20270.79894281 -.00000081  00000-0  00000+0 0  9999
2 40544  56.4862  38.6220 0003537 220.7152 139.2496  1.70475072 34248
GSAT0204 (PRN E22)      
1 40545U 15017B   20270.57996965 -.00000081  00000-0  00000-0 0  9999
2 40545  56.4929  38.6441 0003361 177.1203 182.8735  1.70475253 34246
GSAT0205 (PRN E24)      
1 40889U 15045A   20271.40878584  .00000008  00000-0  00000-0 0  9998
2 40889  56.0755 279.2922 0003548 333.2289  26.7813  1.70475075 31403
GSAT0206 (PRN E30)      
1 40890U 15045B   20271.04175827  .00000009  00000-0  00000+0 0  9990
2 40890  56.0749 279.2988 0002902 302.7597  57.2414  1.70475028 31422
GSAT0209 (PRN E09)      
1 41174U 15079A   20271.80176589 -.00000014  00000-0  00000+0 0  9990
2 41174  55.0063 158.6637 0003869 328.0629  31.9840  1.70472974 29759
GSAT0208 (PRN E08)      
1 41175U 15079B   20272.02150635 -.00000013  00000-0  00000-0 0  9990
2 41175  55.0048 158.6570 0003116 334.0085  26.0476  1.70472945 29766
GSAT0211 (PRN E02)      
1 41549U 16030A   20269.79647576  .00000014  00000-0  00000-0 0  9998
2 41549  56.2186 279.2001 0004811 291.7439  68.2340  1.70474815 27013
GSAT0210 (PRN E01)      
1 41550U 16030B   20267.15643624  .00000015  00000-0  00000-0 0  9999
2 41550  56.2202 279.2741 0004912 267.4862  92.4816  1.70474764 26982
GSAT0207 (PRN E07)      
1 41859U 16069A   20270.92141326 -.00000021  00000-0  00000-0 0  9992
2 41859  54.6647 159.0252 0003478 312.7908  47.2451  1.70472843 23944
GSAT0212 (PRN E03)      
1 41860U 16069B   20271.36145181 -.00000018  00000-0  00000-0 0  9992
2 41860  54.6626 159.0117 0003088 345.4500  14.6083  1.70472866 24047
GSAT0213 (PRN E04)      
1 41861U 16069C   20271.72721713 -.00000016  00000-0  00000-0 0  9992
2 41861  54.6646 159.0056 0002393 285.2751  74.7676  1.70473074 24057
GSAT0214 (PRN E05)      
1 41862U 16069D   20271.87428624 -.00000015  00000-0  00000+0 0  9992
2 41862  54.6632 158.9969 0001712 300.7579  59.2953  1.70472495 24040
GSAT0215 (PRN E21)      
1 43055U 17079A   20271.19085324  .00000009  00000-0  00000+0 0  9993
2 43055  56.1926 279.0037 0004347 263.9481  96.0308  1.70473963 17371
GSAT0216 (PRN E25)      
1 43056U 17079B   20272.07012471  .00000005  00000-0  00000+0 0  9991
2 43056  56.1924 278.9791 0006166 267.4178  92.5379  1.70474100 17371
GSAT0217 (PRN E27)      
1 43057U 17079C   20271.70360763  .00000007  00000-0  00000+0 0  9993
2 43057  56.1912 278.9898 0005604 275.7097  84.2538  1.70474115 17387
GSAT0218 (PRN E31)      
1 43058U 17079D   20271.92361123  .00000006  00000-0  00000-0 0  9999
2 43058  56.1907 278.9812 0006640 265.1448  94.8061  1.70474065 17418
GSAT0221 (PRN E15)      
1 43564U 18060A   20272.40969662 -.00000084  00000-0  00000-0 0  9995
2 43564  56.8745  38.2317 0003489 245.9962 113.9550  1.70476193 13572
GSAT0222 (PRN E33)      
1 43565U 18060B   20271.45638596 -.00000083  00000-0  00000-0 0  9998
2 43565  56.8759  38.2572 0002919 253.5923 106.3653  1.70476164 13602
GSAT0219 (PRN E36)      
1 43566U 18060C   20270.50356053 -.00000081  00000-0  00000-0 0  9997
2 43566  56.8758  38.2849 0002823 243.7258 116.2370  1.70475989 13560
GSAT0220 (PRN E13)      
1 43567U 18060D   20270.72344768 -.00000081  00000-0  00000+0 0  9991
2 43567  56.8764  38.2789 0002801 244.9060 115.0562  1.70475985 13545
